[{"OBJECT_NAME":"SKYSAT-A","OBJECT_ID":"2013-066C","EPOCH":"2026-03-09T23:11:31.147872","MEAN_MOTION":15.12354605,"ECCENTRICITY":0.00202509,"INCLINATION":97.395,"RA_OF_ASC_NODE":121.5014,"ARG_OF_PERICENTER":299.3966,"MEAN_ANOMALY":60.5243,"EPHEMERIS_TYPE":0,"CLASSIFICATION_TYPE":"U","NORAD_CAT_ID":39418,"ELEMENT_SET_NO":999,"REV_AT_EPOCH":67348,"BSTAR":0.0002547658,"MEAN_MOTION_DOT":4.374e-5,"MEAN_MOTION_DDOT":0},{"OBJECT_NAME":"STARLINK-4564","OBJECT_ID":"2022-101AK","EPOCH":"2026-03-09T23:04:53.375232","MEAN_MOTION":15.08839988,"ECCENTRICITY":0.00015277,"INCLINATION":53.2181,"RA_OF_ASC_NODE":53.0847,"ARG_OF_PERICENTER":92.8162,"MEAN_ANOMALY":267.3005,"EPHEMERIS_TYPE":0,"CLASSIFICATION_TYPE":"U","NORAD_CAT_ID":53560,"ELEMENT_SET_NO":999,"REV_AT_EPOCH":19648,"BSTAR":4.7093745e-5,"MEAN_MOTION_DOT":4.62e-6,"MEAN_MOTION_DDOT":0}]
